[{"OBJECT_NAME":"ALOS (DAICHI)","OBJECT_ID":"2006-002A","EPOCH":"2026-04-10T07:02:58.841376","MEAN_MOTION":14.69912638,"ECCENTRICITY":0.00013762,"INCLINATION":98.1267,"RA_OF_ASC_NODE":56.1037,"ARG_OF_PERICENTER":115.0797,"MEAN_ANOMALY":245.0552,"EPHEMERIS_TYPE":0,"CLASSIFICATION_TYPE":"U","NORAD_CAT_ID":28931,"ELEMENT_SET_NO":999,"REV_AT_EPOCH":7812,"BSTAR":0.00022284035,"MEAN_MOTION_DOT":1.284e-5,"MEAN_MOTION_DDOT":0},{"OBJECT_NAME":"H-2A R/B","OBJECT_ID":"2006-002B","EPOCH":"2026-04-10T03:26:06.604800","MEAN_MOTION":15.17174677,"ECCENTRICITY":0.00525542,"INCLINATION":98.2473,"RA_OF_ASC_NODE":249.9004,"ARG_OF_PERICENTER":134.0311,"MEAN_ANOMALY":226.5268,"EPHEMERIS_TYPE":0,"CLASSIFICATION_TYPE":"U","NORAD_CAT_ID":28932,"ELEMENT_SET_NO":999,"REV_AT_EPOCH":9920,"BSTAR":0.00048409787,"MEAN_MOTION_DOT":9.886e-5,"MEAN_MOTION_DDOT":0},{"OBJECT_NAME":"RESURS-DK 1","OBJECT_ID":"2006-021A","EPOCH":"2026-04-10T12:53:41.244288","MEAN_MOTION":15.12938071,"ECCENTRICITY":0.0002295,"INCLINATION":69.932,"RA_OF_ASC_NODE":154.6345,"ARG_OF_PERICENTER":19.5172,"MEAN_ANOMALY":340.6081,"EPHEMERIS_TYPE":0,"CLASSIFICATION_TYPE":"U","NORAD_CAT_ID":29228,"ELEMENT_SET_NO":999,"REV_AT_EPOCH":9234,"BSTAR":0.00010584,"MEAN_MOTION_DOT":1.762e-5,"MEAN_MOTION_DDOT":0},{"OBJECT_NAME":"CZ-4B R/B","OBJECT_ID":"2006-046C","EPOCH":"2026-04-10T01:42:59.614848","MEAN_MOTION":15.17243656,"ECCENTRICITY":0.00338026,"INCLINATION":97.5536,"RA_OF_ASC_NODE":144.8922,"ARG_OF_PERICENTER":156.437,"MEAN_ANOMALY":203.8421,"EPHEMERIS_TYPE":0,"CLASSIFICATION_TYPE":"U","NORAD_CAT_ID":29507,"ELEMENT_SET_NO":999,"REV_AT_EPOCH":6480,"BSTAR":0.00024030803,"MEAN_MOTION_DOT":4.781e-5,"MEAN_MOTION_DDOT":0},{"OBJECT_NAME":"CZ-2C R/B","OBJECT_ID":"2007-010B","EPOCH":"2026-04-10T13:39:56.643840","MEAN_MOTION":14.20258766,"ECCENTRICITY":0.0058662,"INCLINATION":98.4014,"RA_OF_ASC_NODE":212.2556,"ARG_OF_PERICENTER":200.4309,"MEAN_ANOMALY":159.4521,"EPHEMERIS_TYPE":0,"CLASSIFICATION_TYPE":"U","NORAD_CAT_ID":31114,"ELEMENT_SET_NO":999,"REV_AT_EPOCH":98424,"BSTAR":8.01e-5,"MEAN_MOTION_DOT":1.33e-6,"MEAN_MOTION_DDOT":0},{"OBJECT_NAME":"COSMO-SKYMED 1","OBJECT_ID":"2007-023A","EPOCH":"2026-04-10T11:43:14.297088","MEAN_MOTION":14.96786561,"ECCENTRICITY":0.0001731,"INCLINATION":97.889,"RA_OF_ASC_NODE":291.7813,"ARG_OF_PERICENTER":90.6554,"MEAN_ANOMALY":269.4865,"EPHEMERIS_TYPE":0,"CLASSIFICATION_TYPE":"U","NORAD_CAT_ID":31598,"ELEMENT_SET_NO":999,"REV_AT_EPOCH":1966,"BSTAR":0.00030204,"MEAN_MOTION_DOT":3.397e-5,"MEAN_MOTION_DDOT":0},{"OBJECT_NAME":"COSMOS 2428","OBJECT_ID":"2007-029A","EPOCH":"2026-04-10T11:07:04.507104","MEAN_MOTION":14.12948775,"ECCENTRICITY":0.0009637,"INCLINATION":70.941,"RA_OF_ASC_NODE":136.6557,"ARG_OF_PERICENTER":243.6889,"MEAN_ANOMALY":116.3243,"EPHEMERIS_TYPE":0,"CLASSIFICATION_TYPE":"U","NORAD_CAT_ID":31792,"ELEMENT_SET_NO":999,"REV_AT_EPOCH":96858,"BSTAR":-2.633e-5,"MEAN_MOTION_DOT":-9.7e-7,"MEAN_MOTION_DDOT":0},{"OBJECT_NAME":"SL-16 R/B","OBJECT_ID":"2007-029B","EPOCH":"2026-04-10T11:01:00.412320","MEAN_MOTION":14.1484265,"ECCENTRICITY":0.0002884,"INCLINATION":70.973,"RA_OF_ASC_NODE":105.6031,"ARG_OF_PERICENTER":274.1536,"MEAN_ANOMALY":195.2643,"EPHEMERIS_TYPE":0,"CLASSIFICATION_TYPE":"U","NORAD_CAT_ID":31793,"ELEMENT_SET_NO":999,"REV_AT_EPOCH":96986,"BSTAR":-8.0465e-5,"MEAN_MOTION_DOT":-2.03e-6,"MEAN_MOTION_DDOT":0},{"OBJECT_NAME":"KORONAS-FOTON","OBJECT_ID":"2009-003A","EPOCH":"2026-04-10T11:03:36.594144","MEAN_MOTION":15.44256268,"ECCENTRICITY":0.0011093,"INCLINATION":82.4294,"RA_OF_ASC_NODE":242.8217,"ARG_OF_PERICENTER":45.6099,"MEAN_ANOMALY":314.6055,"EPHEMERIS_TYPE":0,"CLASSIFICATION_TYPE":"U","NORAD_CAT_ID":33504,"ELEMENT_SET_NO":999,"REV_AT_EPOCH":95064,"BSTAR":0.00031301,"MEAN_MOTION_DOT":0.00014462,"MEAN_MOTION_DDOT":0},{"OBJECT_NAME":"CZ-2C R/B","OBJECT_ID":"2011-030B","EPOCH":"2026-04-10T09:07:27.810336","MEAN_MOTION":14.81333356,"ECCENTRICITY":0.0051034,"INCLINATION":97.8594,"RA_OF_ASC_NODE":57.023,"ARG_OF_PERICENTER":246.6649,"MEAN_ANOMALY":278.6741,"EPHEMERIS_TYPE":0,"CLASSIFICATION_TYPE":"U","NORAD_CAT_ID":37731,"ELEMENT_SET_NO":999,"REV_AT_EPOCH":79478,"BSTAR":0.00015148,"MEAN_MOTION_DOT":1.154e-5,"MEAN_MOTION_DDOT":0},{"OBJECT_NAME":"H-2A R/B","OBJECT_ID":"2012-025E","EPOCH":"2026-04-10T12:20:56.504832","MEAN_MOTION":14.95386204,"ECCENTRICITY":0.00437,"INCLINATION":98.4769,"RA_OF_ASC_NODE":70.1249,"ARG_OF_PERICENTER":206.9673,"MEAN_ANOMALY":152.9275,"EPHEMERIS_TYPE":0,"CLASSIFICATION_TYPE":"U","NORAD_CAT_ID":38341,"ELEMENT_SET_NO":999,"REV_AT_EPOCH":75297,"BSTAR":0.00023132,"MEAN_MOTION_DOT":2.532e-5,"MEAN_MOTION_DDOT":0},{"OBJECT_NAME":"SHIJIAN-16 (SJ-16)","OBJECT_ID":"2013-057A","EPOCH":"2026-04-10T12:55:02.672832","MEAN_MOTION":14.92451276,"ECCENTRICITY":0.0015567,"INCLINATION":74.9704,"RA_OF_ASC_NODE":124.7932,"ARG_OF_PERICENTER":30.2736,"MEAN_ANOMALY":329.9348,"EPHEMERIS_TYPE":0,"CLASSIFICATION_TYPE":"U","NORAD_CAT_ID":39358,"ELEMENT_SET_NO":999,"REV_AT_EPOCH":67625,"BSTAR":4.4697e-5,"MEAN_MOTION_DOT":4.3e-6,"MEAN_MOTION_DDOT":0},{"OBJECT_NAME":"SL-4 R/B","OBJECT_ID":"2014-021B","EPOCH":"2026-04-10T11:54:14.387904","MEAN_MOTION":15.40371701,"ECCENTRICITY":0.0093684,"INCLINATION":51.6059,"RA_OF_ASC_NODE":181.9787,"ARG_OF_PERICENTER":219.1712,"MEAN_ANOMALY":140.2466,"EPHEMERIS_TYPE":0,"CLASSIFICATION_TYPE":"U","NORAD_CAT_ID":39679,"ELEMENT_SET_NO":999,"REV_AT_EPOCH":66117,"BSTAR":0.00033591,"MEAN_MOTION_DOT":0.00015692,"MEAN_MOTION_DDOT":0},{"OBJECT_NAME":"ALOS-2","OBJECT_ID":"2014-029A","EPOCH":"2026-04-10T13:46:26.160960","MEAN_MOTION":14.79469343,"ECCENTRICITY":0.0001801,"INCLINATION":97.9189,"RA_OF_ASC_NODE":198.7071,"ARG_OF_PERICENTER":93.8365,"MEAN_ANOMALY":266.3053,"EPHEMERIS_TYPE":0,"CLASSIFICATION_TYPE":"U","NORAD_CAT_ID":39766,"ELEMENT_SET_NO":999,"REV_AT_EPOCH":64158,"BSTAR":6.9388e-5,"MEAN_MOTION_DOT":4.67e-6,"MEAN_MOTION_DDOT":0},{"OBJECT_NAME":"YAOGAN-29","OBJECT_ID":"2015-069A","EPOCH":"2026-04-10T12:08:39.161184","MEAN_MOTION":14.83033665,"ECCENTRICITY":6.19e-5,"INCLINATION":98.01,"RA_OF_ASC_NODE":129.0149,"ARG_OF_PERICENTER":164.035,"MEAN_ANOMALY":196.0883,"EPHEMERIS_TYPE":0,"CLASSIFICATION_TYPE":"U","NORAD_CAT_ID":41038,"ELEMENT_SET_NO":999,"REV_AT_EPOCH":56059,"BSTAR":0.00013598,"MEAN_MOTION_DOT":1.052e-5,"MEAN_MOTION_DDOT":0},{"OBJECT_NAME":"ASTRO-H (HITOMI)","OBJECT_ID":"2016-012A","EPOCH":"2026-04-10T10:15:16.090848","MEAN_MOTION":15.1021304,"ECCENTRICITY":0.0009669,"INCLINATION":30.9983,"RA_OF_ASC_NODE":151.7033,"ARG_OF_PERICENTER":290.5272,"MEAN_ANOMALY":69.4328,"EPHEMERIS_TYPE":0,"CLASSIFICATION_TYPE":"U","NORAD_CAT_ID":41337,"ELEMENT_SET_NO":999,"REV_AT_EPOCH":55703,"BSTAR":0.00015285,"MEAN_MOTION_DOT":2.657e-5,"MEAN_MOTION_DDOT":0},{"OBJECT_NAME":"HXMT (HUIYAN)","OBJECT_ID":"2017-034A","EPOCH":"2026-04-10T13:34:39.408096","MEAN_MOTION":15.17899875,"ECCENTRICITY":0.0030321,"INCLINATION":43.0136,"RA_OF_ASC_NODE":199.3978,"ARG_OF_PERICENTER":75.6046,"MEAN_ANOMALY":284.8165,"EPHEMERIS_TYPE":0,"CLASSIFICATION_TYPE":"U","NORAD_CAT_ID":42758,"ELEMENT_SET_NO":999,"REV_AT_EPOCH":48738,"BSTAR":0.00028266,"MEAN_MOTION_DOT":5.663e-5,"MEAN_MOTION_DDOT":0}]
