ALOS (DAICHI)           
1 28931U 06002A   26100.29373659  .00001284  00000+0  22284-3 0  9999
2 28931  98.1267  56.1037 0001376 115.0797 245.0552 14.69912638 78127
H-2A R/B                
1 28932U 06002B   26100.14313200  .00009886  00000+0  48410-3 0  9995
2 28932  98.2473 249.9004 0052554 134.0311 226.5268 15.17174677 99208
RESURS-DK 1             
1 29228U 06021A   26100.53728292  .00001762  00000+0  10584-3 0  9995
2 29228  69.9320 154.6345 0002295  19.5172 340.6081 15.12938071 92342
CZ-4B R/B               
1 29507U 06046C   26100.07152332  .00004781  00000+0  24031-3 0  9993
2 29507  97.5536 144.8922 0033802 156.4370 203.8421 15.17243656 64800
CZ-2C R/B               
1 31114U 07010B   26100.56940560  .00000133  00000+0  80100-4 0  9991
2 31114  98.4014 212.2556 0058662 200.4309 159.4521 14.20258766984241
COSMO-SKYMED 1          
1 31598U 07023A   26100.48835992  .00003397  00000+0  30204-3 0  9998
2 31598  97.8890 291.7813 0001731  90.6554 269.4865 14.96786561 19666
COSMOS 2428             
1 31792U 07029A   26100.46324661 -.00000097  00000+0 -26330-4 0  9996
2 31792  70.9410 136.6557 0009637 243.6889 116.3243 14.12948775968587
SL-16 R/B               
1 31793U 07029B   26100.45903255 -.00000203  00000+0 -80465-4 0  9996
2 31793  70.9730 105.6031 0002884 274.1536 195.2643 14.14842650969860
KORONAS-FOTON           
1 33504U 09003A   26100.46084021  .00014462  00000+0  31301-3 0  9998
2 33504  82.4294 242.8217 0011093  45.6099 314.6055 15.44256268950640
CZ-2C R/B               
1 37731U 11030B   26100.38018299  .00001154  00000+0  15148-3 0  9997
2 37731  97.8594  57.0230 0051034 246.6649 278.6741 14.81333356794789
H-2A R/B                
1 38341U 12025E   26100.51454288  .00002532  00000+0  23132-3 0  9990
2 38341  98.4769  70.1249 0043700 206.9673 152.9275 14.95386204752977
SHIJIAN-16 (SJ-16)      
1 39358U 13057A   26100.53822538  .00000430  00000+0  44697-4 0  9999
2 39358  74.9704 124.7932 0015567  30.2736 329.9348 14.92451276676259
SL-4 R/B                
1 39679U 14021B   26100.49599986  .00015692  00000+0  33591-3 0  9996
2 39679  51.6059 181.9787 0093684 219.1712 140.2466 15.40371701661179
ALOS-2                  
1 39766U 14029A   26100.57391390  .00000467  00000+0  69388-4 0  9997
2 39766  97.9189 198.7071 0001801  93.8365 266.3053 14.79469343641582
YAOGAN-29               
1 41038U 15069A   26100.50600881  .00001052  00000+0  13598-3 0  9990
2 41038  98.0100 129.0149 0000619 164.0350 196.0883 14.83033665560596
ASTRO-H (HITOMI)        
1 41337U 16012A   26100.42726957  .00002657  00000+0  15285-3 0  9992
2 41337  30.9983 151.7033 0009669 290.5272  69.4328 15.10213040557038
HXMT (HUIYAN)           
1 42758U 17034A   26100.56573389  .00005663  00000+0  28266-3 0  9992
2 42758  43.0136 199.3978 0030321  75.6046 284.8165 15.17899875487382
